     2.100          NAVIGATION                              RINEX VERSION / TYPE
fic2rin                                 12/04/2015 00:08:13 PGM / RUN BY / DATE
                                                            END OF HEADER
19 15 12  3 16  0  0.0 -.523370690644D-03 -.341060513165D-12  .000000000000D+00
     .110000000000D+02 -.166250000000D+02  .439589739249D-08 -.221807689795D+01
    -.111572444439D-05  .113168172538D-01  .548921525478D-05  .515517562294D+04
     .403200000000D+06  .156462192535D-06  .125492594585D-01 -.119209289551D-06
     .971882697581D+00  .276531250000D+03  .662481780717D+00 -.799211861811D-08
     .314655963827D-09  .100000000000D+01  .187300000000D+04  .000000000000D+00
     .240000000000D+01  .000000000000D+00 -.149011611938D-07  .110000000000D+02
     .396006000000D+06  .400000000000D+01
20 15 12  3 16  0  0.0  .375631731004D-03  .284217094304D-11  .000000000000D+00
     .800000000000D+02  .123125000000D+02  .533593654889D-08 -.760721896766D+00
     .705942511559D-06  .503582740203D-02  .991858541965D-05  .515367196083D+04
     .403200000000D+06 -.484287738800D-07  .193413120479D+01  .745058059692D-07
     .925877559340D+00  .169562500000D+03  .128361454619D+01 -.843856578585D-08
     .589310261424D-10  .100000000000D+01  .187300000000D+04  .000000000000D+00
     .240000000000D+01  .000000000000D+00 -.838190317154D-08  .800000000000D+02
     .396006000000D+06  .400000000000D+01
21 15 12  3 16  0  0.0 -.497294124216D-03 -.227373675443D-11  .000000000000D+00
     .610000000000D+02 -.741562500000D+02  .514700010750D-08  .240928627132D+01
    -.396743416786D-05  .227283147397D-01  .732764601707D-05  .515371364021D+04
     .403200000000D+06  .266358256340D-06  .943301731435D+00 -.264495611191D-06
     .934960490000D+00  .222437500000D+03 -.185655200512D+01 -.801176229349D-08
    -.101432796512D-09  .100000000000D+01  .187300000000D+04  .000000000000D+00
     .240000000000D+01  .000000000000D+00 -.116415321827D-07  .610000000000D+02
     .396006000000D+06  .400000000000D+01
22 15 12  3 16  0  0.0  .416297931224D-03  .352429196937D-11  .000000000000D+00
     .510000000000D+02  .115625000000D+01  .551130099638D-08  .101340662370D+01
     .176951289177D-06  .799716787878D-02  .100322067738D-04  .515367285538D+04
     .403200000000D+06 -.968575477600D-07  .198703152651D+01  .912696123123D-07
     .922505732124D+00  .168250000000D+03 -.204801269757D+01 -.859857245077D-08
     .260725145963D-10  .100000000000D+01  .187300000000D+04  .000000000000D+00
     .240000000000D+01  .000000000000D+00 -.176951289177D-07  .510000000000D+02
     .396006000000D+06  .400000000000D+01
23 15 12  3 16  0  0.0 -.147765502334D-03 -.204636307899D-11  .000000000000D+00
     .700000000000D+02  .447812500000D+02  .491734768441D-08 -.128596871785D+01
     .223889946938D-05  .103856315836D-01  .612810254097D-05  .515376460457D+04
     .403200000000D+06  .188127160072D-06  .306094165511D+01 -.912696123123D-07
     .947406860967D+00  .251750000000D+03 -.261993084492D+01 -.823641450830D-08
     .750031241812D-11  .100000000000D+01  .187300000000D+04  .000000000000D+00
     .240000000000D+01  .000000000000D+00 -.200234353542D-07  .700000000000D+02
     .396006000000D+06  .400000000000D+01
24 15 12  3 16  0  0.0 -.876933336258D-05 -.454747350886D-12  .000000000000D+00
     .270000000000D+02 -.262500000000D+01  .467483758289D-08 -.190479919990D+01
    -.119209289551D-06  .383263453841D-02  .696815550327D-05  .515364536285D+04
     .403200000000D+06 -.204890966415D-07 -.219605063574D+01 -.260770320892D-07
     .951489253827D+00  .241000000000D+03  .305035753644D+00 -.817569769348D-08
    -.253224833545D-09  .100000000000D+01  .187300000000D+04  .000000000000D+00
     .240000000000D+01  .000000000000D+00  .279396772385D-08  .270000000000D+02
     .396006000000D+06  .400000000000D+01
25 15 12  3 16  0  0.0 -.770515762269D-04 -.591171556152D-11  .000000000000D+00
     .180000000000D+02  .213437500000D+02  .392016329054D-08  .235263609996D+01
     .111386179924D-05  .476182694547D-02  .861845910549D-05  .515359545135D+04
     .403200000000D+06 -.353902578354D-07 -.112788636659D+01 -.670552253723D-07
     .978474032982D+00  .221062500000D+03  .705765534379D+00 -.783746931920D-08
     .155363614375D-09  .100000000000D+01  .187300000000D+04  .000000000000D+00
     .240000000000D+01  .000000000000D+00  .558793544769D-08  .180000000000D+02
     .396006000000D+06  .400000000000D+01
26 15 12  3 16  0  0.0 -.148872379214D-03 -.167119651451D-10  .000000000000D+00
     .780000000000D+02  .784375000000D+01  .433196615806D-08  .207514325798D+01
     .447034835815D-06  .464612850919D-03  .826455652714D-05  .515368012047D+04
     .403200000000D+06  .260770320892D-07 -.113378593339D+01 -.372529029846D-08
     .960524488969D+00  .218843750000D+03 -.342608371677D+00 -.806783605776D-08
     .102861427448D-09  .100000000000D+01  .187300000000D+04  .000000000000D+00
     .240000000000D+01  .000000000000D+00  .745058059692D-08  .780000000000D+02
     .396006000000D+06  .400000000000D+01
27 15 12  3 16  0  0.0  .411700457335D-04  .329691829393D-11  .000000000000D+00
     .370000000000D+02 -.100312500000D+02  .448090093322D-08 -.703084573152D-01
    -.530853867531D-06  .281457242090D-02  .573694705963D-05  .515370918846D+04
     .403200000000D+06 -.111758708954D-07 -.854247986057D-01  .931322574615D-08
     .969744255135D+00  .274156250000D+03  .260391788992D+00 -.818712674098D-08
     .222866426138D-09  .100000000000D+01  .187300000000D+04  .000000000000D+00
     .240000000000D+01  .000000000000D+00  .186264514923D-08  .370000000000D+02
     .396006000000D+06  .400000000000D+01
28 15 12  3 16  0  0.0  .485727563500D-03  .261479726760D-11  .000000000000D+00
     .790000000000D+02  .934375000000D+01  .384337437768D-08  .718912289080D+00
     .463798642159D-06  .200067213736D-01  .830739736557D-05  .515370285606D+04
     .403200000000D+06 -.283122062683D-06 -.105514085014D+01 -.115483999252D-06
     .989324594392D+00  .239500000000D+03 -.164399041489D+01 -.810748056625D-08
     .857178562071D-11  .100000000000D+01  .187300000000D+04  .000000000000D+00
     .340000000000D+01  .000000000000D+00 -.111758708954D-07  .790000000000D+02
     .396006000000D+06  .400000000000D+01
29 15 12  3 16  0  0.0  .646907370538D-03  .147792889038D-11  .000000000000D+00
     .800000000000D+01 -.150312500000D+02  .435160983345D-08  .250868360678D+01
    -.951811671257D-06  .892499112524D-03  .537931919098D-05  .515365004539D+04
     .403200000000D+06  .186264514923D-08 -.270166985654D-01  .149011611938D-07
     .975724798831D+00  .281500000000D+03 -.576625617309D+00 -.807747931658D-08
     .217866217860D-09  .100000000000D+01  .187300000000D+04  .000000000000D+00
     .240000000000D+01  .000000000000D+00 -.102445483208D-07  .800000000000D+01
     .396006000000D+06  .400000000000D+01
30 15 12  3 16  0  0.0  .658384524286D-04  .534328137292D-11  .000000000000D+00
     .108000000000D+03 -.437500000000D+00  .463733602080D-08 -.294247863791D+01
    -.856816768646D-07  .166218169034D-02  .662542879581D-05  .515366831970D+04
     .403200000000D+06 -.335276126862D-07 -.210525107026D+01  .279396772385D-07
     .954087484110D+00  .248656250000D+03  .313793994610D+01 -.816891169653D-08
    -.248938940735D-09  .100000000000D+01  .187300000000D+04  .000000000000D+00
     .240000000000D+01  .000000000000D+00  .325962901115D-08  .108000000000D+03
     .396006000000D+06  .400000000000D+01
31 15 12  3 16  0  0.0  .292764976621D-03 -.159161572810D-11  .000000000000D+00
     .200000000000D+01 -.843750000000D+00  .422803325741D-08 -.288790507437D+01
     .558793544769D-08  .829911720939D-02  .702217221260D-05  .515364896965D+04
     .403200000000D+06 -.745058059692D-08 -.214332684287D+01  .763684511185D-07
     .973179659308D+00  .252875000000D+03 -.488391841903D+00 -.790532928870D-08
    -.311441544219D-09  .100000000000D+01  .187300000000D+04  .000000000000D+00
     .240000000000D+01  .000000000000D+00 -.135041773319D-07  .200000000000D+01
     .396006000000D+06  .400000000000D+01
32 15 12  3 16  0  0.0  .363690778613D-04  .119371179608D-10  .000000000000D+00
     .590000000000D+02  .100937500000D+02  .482734393539D-08 -.248254284065D+01
     .426545739174D-06  .113813199569D-01  .969134271145D-05  .515365180779D+04
     .403200000000D+06 -.160187482834D-06  .209248939802D+01 -.281259417534D-06
     .946562117940D+00  .182531250000D+03  .187613228147D+00 -.805462122159D-08
     .635740766869D-10  .100000000000D+01  .187300000000D+04  .000000000000D+00
     .240000000000D+01  .000000000000D+00 -.325962901115D-08  .590000000000D+02
     .396006000000D+06  .400000000000D+01
28 15 12  3 15 59 44.0  .485730823129D-03  .261479726760D-11  .000000000000D+00
     .800000000000D+01  .934375000000D+01  .384337437768D-08  .716578712380D+00
     .463798642159D-06  .200067166006D-01  .830739736557D-05  .515370286369D+04
     .403184000000D+06 -.283122062683D-06 -.105514069215D+01 -.115483999252D-06
     .989324588540D+00  .239500000000D+03 -.164399056996D+01 -.810748056625D-08
     .892894335490D-11  .100000000000D+01  .187300000000D+04  .000000000000D+00
     .240000000000D+01  .000000000000D+00 -.111758708954D-07  .800000000000D+01
     .401706000000D+06  .400000000000D+01
28 15 12  3 17 59 44.0  .485749915242D-03  .261479726760D-11  .000000000000D+00
     .290000000000D+02  .531250000000D+00  .365836667137D-08  .176670605010D+01
    -.230967998505D-06  .200074219611D-01  .798888504505D-05  .515370436096D+04
     .410384000000D+06  .141561031342D-06 -.105519851252D+01 -.489875674248D-06
     .989327211552D+00  .238593750000D+03 -.164396084493D+01 -.761103131572D-08
     .122862260563D-09  .100000000000D+01  .187300000000D+04  .000000000000D+00
     .240000000000D+01  .000000000000D+00 -.111758708954D-07  .290000000000D+02
     .403206000000D+06  .400000000000D+01
